IRIDIUM 63              
1 25286U 98021B   25095.94506933  .00000795  00000+0  26476-3 0  9991
2 25286  86.3932 112.4493 0002386  93.9160 266.2310 14.36462610413479
IRIDIUM 69              
1 25319U 98026A   25096.10945690  .00000977  00000+0  29899-3 0  9993
2 25319  86.3948 125.8888 0000392 171.5540 188.5666 14.40871950412924
IRIDIUM 71              
1 25320U 98026B   25095.77882537  .00000809  00000+0  24527-3 0  9994
2 25320  86.3937 120.7320 0002054  33.0191 327.1137 14.41070228413161
IRIDIUM 73              
1 25344U 98032C   25095.96035087  .00001587  00000+0  39161-3 0  9992
2 25344  86.4368  77.4913 0001855  97.8473 262.2943 14.51581442420080
IRIDIUM 82              
1 25467U 98051A   25095.64028741  .00039279  00000+0  12612-2 0  9993
2 25467  86.3699 145.2976 0092054 209.7076 149.8927 15.28019559412868
